H1 CPF  1  DLR 2021 03 31 10  5902 technosat            
H2  1704205 6203    42829 2021 03 31 00 00 00 2021 04 07 00 00 00    60 1 1  0 0 0
H9
10 0 59305  57600.000000  0       1973409.014       5246145.976      -4175333.186
10 0 59305  57660.000000  0       1965869.751       4951484.648      -4524597.494
10 0 59305  57720.000000  0       1947453.469       4636261.000      -4854831.348
10 0 59305  57780.000000  0       1918067.577       4301896.980      -5164656.286
10 0 59305  57840.000000  0       1877677.731       3949893.084      -5452780.397
10 0 59305  57900.000000  0       1826308.553       3581821.500      -5718003.421
10 0 59305  57960.000000  0       1764044.005       3199318.945      -5959221.414
10 0 59305  58020.000000  0       1691027.477       2804079.328      -6175430.959
10 0 59305  58080.000000  0       1607461.601       2397846.263      -6365732.960
10 0 59305  58140.000000  0       1513607.779       1982405.468      -6529335.996
10 0 59305  58200.000000  0       1409785.471       1559577.095      -6665559.333
10 0 59305  58260.000000  0       1296371.168       1131207.891      -6773835.545
10 0 59305  58320.000000  0       1173797.048        699163.305      -6853712.627
10 0 59305  58380.000000  0       1042549.373        265319.616      -6904855.716
10 0 59305  58440.000000  0        903166.626       -168444.020      -6927048.385
10 0 59305  58500.000000  0        756237.350       -600253.478      -6920193.456
10 0 59305  58560.000000  0        602397.757      -1028247.464      -6884313.385
10 0 59305  58620.000000  0        442329.114      -1450585.258      -6819550.266
10 0 59305  58680.000000  0        276754.875      -1865454.331      -6726165.403
10 0 59305  58740.000000  0        106437.581      -2271077.887      -6604538.598
10 0 59305  58800.000000  0        -67824.544      -2665722.417      -6455166.954
10 0 59305  58860.000000  0       -245201.193      -3047705.070      -6278663.088
10 0 59305  58920.000000  0       -424833.758      -3415400.748      -6075752.924
10 0 59305  58980.000000  0       -605839.277      -3767248.989      -5847273.118
10 0 59305  59040.000000  0       -787314.602      -4101760.677      -5594168.063
10 0 59305  59100.000000  0       -968340.731      -4417524.503      -5317486.434
10 0 59305  59160.000000  0      -1147987.309      -4713213.155      -5018377.265
10 0 59305  59220.000000  0      -1325317.268      -4987589.176      -4698085.571
10 0 59305  59280.000000  0      -1499391.583      -5239510.468      -4357947.538
10 0 59305  59340.000000  0      -1669274.112      -5467935.410      -3999385.266
10 0 59305  59400.000000  0      -1834036.495      -5671927.551      -3623901.109
10 0 59305  59460.000000  0      -1992763.097      -5850659.865      -3233071.622
10 0 59305  59520.000000  0      -2144555.961      -6003418.536      -2828541.131
10 0 59305  59580.000000  0      -2288539.755      -6129606.263      -2412014.937
10 0 59305  59640.000000  0      -2423866.667      -6228745.051      -1985252.168
10 0 59305  59700.000000  0      -2549721.227      -6300478.440      -1550058.317
10 0 59305  59760.000000  0      -2665325.025      -6344573.164      -1108277.478
10 0 59305  59820.000000  0      -2769941.296      -6360920.191       -661784.341
10 0 59305  59880.000000  0      -2862879.311      -6349535.126       -212475.995
10 0 59305  59940.000000  0      -2943498.564      -6310558.007        237736.401
10 0 59305  60000.000000  0      -3011212.735      -6244252.490        686936.045
10 0 59305  60060.000000  0      -3065493.401      -6151004.425       1133208.992
10 0 59305  60120.000000  0      -3105873.453      -6031319.807       1574652.680
10 0 59305  60180.000000  0      -3131950.211      -5885822.096       2009384.401
10 0 59305  60240.000000  0      -3143388.207      -5715248.960       2435549.661
10 0 59305  60300.000000  0      -3139921.615      -5520448.477       2851330.412
10 0 59305  60360.000000  0      -3121356.322      -5302374.792       3254953.105
10 0 59305  60420.000000  0      -3087571.621      -5062083.266       3644696.509
10 0 59305  60480.000000  0      -3038521.528      -4800725.167       4018899.273
10 0 59305  60540.000000  0      -2974235.723      -4519541.890       4375967.187
10 0 59305  60600.000000  0      -2894820.108      -4219858.778       4714380.091
10 0 59305  60660.000000  0      -2800456.997      -3903078.587       5032698.437
10 0 59305  60720.000000  0      -2691404.844      -3570674.594       5329569.470
10 0 59305  60780.000000  0      -2567997.560      -3224183.430       5603732.913
10 0 59305  60840.000000  0      -2430643.504      -2865197.730       5854026.229
10 0 59305  60900.000000  0      -2279824.073      -2495358.594       6079389.452
10 0 59305  60960.000000  0      -2116091.937      -2116347.895       6278869.583
10 0 59305  61020.000000  0      -1940068.906      -1729880.438       6451624.535
10 0 59305  61080.000000  0      -1752443.414      -1337695.955       6596926.557
10 0 59305  61140.000000  0      -1553967.691       -941551.047       6714165.065
10 0 59305  61200.000000  0      -1345454.651       -543211.185       6802848.883
10 0 59305  61260.000000  0      -1127774.537       -144442.867       6862608.094
10 0 59305  61320.000000  0       -901851.240        252994.239       6893195.526
10 0 59305  61380.000000  0       -668658.305        647355.147       6894487.687
10 0 59305  61440.000000  0       -429214.666       1036917.271       6866485.159
10 0 59305  61500.000000  0       -184580.144       1419987.977       6809312.495
10 0 59305  61560.000000  0         64149.296       1794911.996       6723217.642
10 0 59305  61620.000000  0        315846.520       2160078.625       6608570.787
10 0 59305  61680.000000  0        569358.341       2513928.616       6465862.735
10 0 59305  61740.000000  0        823510.807       2854960.858       6295702.877
10 0 59305  61800.000000  0       1077114.647       3181738.814       6098816.657
10 0 59305  61860.000000  0       1328970.832       3492896.658       5876042.536
10 0 59305  61920.000000  0       1577876.233       3787145.077       5628328.496
10 0 59305  61980.000000  0       1822629.384       4063276.718       5356728.108
10 0 59305  62040.000000  0       2062036.323       4320171.307       5062396.144
10 0 59305  62100.000000  0       2294916.468       4556800.323       4746583.665
10 0 59305  62160.000000  0       2520108.418       4772231.186       4410632.708
10 0 59305  62220.000000  0       2736475.723       4965631.006       4055970.642
10 0 59305  62280.000000  0       2942912.574       5136269.891       3684104.174
10 0 59305  62340.000000  0       3138349.486       5283523.920       3296613.077
10 0 59305  62400.000000  0       3321758.933       5406877.683       2895143.343
10 0 59305  62460.000000  0       3492160.752       5505926.103       2481399.907
10 0 59305  62520.000000  0       3648627.244       5580375.568       2057139.221
10 0 59305  62580.000000  0       3790288.051       5630044.667       1624161.752
10 0 59305  62640.000000  0       3916334.807       5654864.515       1184304.227
10 0 59305  62700.000000  0       4026025.573       5654878.503        739431.573
10 0 59305  62760.000000  0       4118688.921       5630241.335        291428.735
10 0 59305  62820.000000  0       4193727.657       5581217.543       -157807.463
10 0 59305  62880.000000  0       4250622.210       5508179.570       -606376.488
10 0 59305  62940.000000  0       4288933.676       5411605.345      -1052382.284
10 0 59305  63000.000000  0       4308306.464       5292075.349      -1493941.441
10 0 59305  63060.000000  0       4308470.513       5150269.185      -1929191.269
10 0 59305  63120.000000  0       4289243.104       4986961.737      -2356297.717
10 0 59305  63180.000000  0       4250530.241       4803018.905      -2773463.176
10 0 59305  63240.000000  0       4192327.585       4599392.912      -3178934.064
10 0 59305  63300.000000  0       4114720.935       4377117.232      -3571008.129
10 0 59305  63360.000000  0       4017886.313       4137301.205      -3948041.442
10 0 59305  63420.000000  0       3902089.666       3881124.423      -4308455.102
10 0 59305  63480.000000  0       3767686.149       3609830.819      -4650741.676
10 0 59305  63540.000000  0       3615118.962       3324722.518      -4973471.275
10 0 59305  63600.000000  0       3444917.779       3027153.512      -5275297.248
10 0 59305  63660.000000  0       3257696.771       2718523.165      -5554961.481
10 0 59305  63720.000000  0       3054152.301       2400269.630      -5811299.273
10 0 59305  63780.000000  0       2835060.271       2073863.152      -6043243.872
10 0 59305  63840.000000  0       2601273.047       1740799.305      -6249830.549
10 0 59305  63900.000000  0       2353716.097       1402592.229      -6430200.204
10 0 59305  63960.000000  0       2093384.343       1060767.886      -6583602.578
10 0 59305  64020.000000  0       1821338.237        716857.352      -6709399.043
10 0 59305  64080.000000  0       1538699.569        372390.180      -6807065.054
10 0 59305  64140.000000  0       1246646.930         28887.781      -6876192.248
10 0 59305  64200.000000  0        946410.837       -312143.161      -6916489.981
10 0 59305  64260.000000  0        639268.697       -649217.100      -6927786.369
10 0 59305  64320.000000  0        326539.580       -980875.864      -6910028.963
10 0 59305  64380.000000  0          9578.775      -1305694.749      -6863285.009
10 0 59305  64440.000000  0       -310227.840      -1622288.410      -6787741.333
10 0 59305  64500.000000  0       -631469.668      -1929316.638      -6683703.852
10 0 59305  64560.000000  0       -952717.450      -2225489.960      -6551596.580
10 0 59305  64620.000000  0      -1272529.442      -2509575.028      -6391960.148
10 0 59305  64680.000000  0      -1589457.688      -2780399.696      -6205449.885
10 0 59305  64740.000000  0      -1902054.402      -3036857.852      -5992833.521
99
